first,last,address,city,state,zip
Tripp,Dorian,116 Dottie Point,Fort Collins,Colorado,80525
Tanya,Meecher,5 5th Parkway,Columbia,South Carolina,29225
Annamaria,Newcomb,33494 Cascade Place,Abilene,Texas,79605
Dmitri,Riddich,8 Clarendon Drive,Philadelphia,Pennsylvania,19109
Anneliese,McVanamy,7 Cordelia Park,Wilmington,North Carolina,28410
Ninnetta,Cahalan,9 Steensland Parkway,Nashville,Tennessee,37245
Torie,Fifoot,7325 Hovde Court,Baltimore,Maryland,21265
Berty,Zannini,38 Loomis Place,Shreveport,Louisiana,71161
Nicolette,Grayston,841 Bayside Crossing,Denver,Colorado,80204
Brien,Karp,95 Tennessee Circle,San Diego,California,92153
Lexie,Queripel,66520 4th Hill,Springfield,Virginia,22156
Tobe,Hooban,82 Swallow Hill,Fort Lauderdale,Florida,33345
Rakel,Brownsmith,93 Pepper Wood Hill,Lima,Ohio,45807
Madge,Coverdill,2227 Corry Crossing,Allentown,Pennsylvania,18105
Karim,MacAdam,8 Birchwood Alley,Battle Creek,Michigan,49018
Sarina,Champkins,690 Rigney Center,Washington,District of Columbia,20319
Dolli,Battin,888 Pierstorff Place,Littleton,Colorado,80161
Lem,Wonham,46 Towne Lane,Vero Beach,Florida,32964
Junette,Di Pietro,7 Southridge Drive,Brooklyn,New York,11225
Aubrie,Grahlman,4647 Old Shore Road,Charleston,West Virginia,25313
Cloe,de Mendoza,4 Starling Circle,Fort Worth,Texas,76129
Marthena,Bellanger,0 Sachs Pass,Columbus,Georgia,31914
Tom,Beagrie,5 Rieder Junction,Birmingham,Alabama,35210
Drucill,Isgate,9 Dixon Court,Asheville,North Carolina,28815
Maggi,Elcom,7525 Nevada Circle,Boston,Massachusetts,02114
Dwayne,Maysor,06 Marcy Court,Dallas,Texas,75251
Germaine,Tabor,72 Melvin Alley,Fort Wayne,Indiana,46862
Selene,McHan,23 Fremont Way,Eugene,Oregon,97405
Iona,Killen,05 Fairfield Crossing,New York City,New York,10029
Anett,Hindmoor,6 Raven Place,New York City,New York,10079
Bailey,Tonna,22 South Avenue,Fort Wayne,Indiana,46867
Amerigo,Rodwell,54 Maywood Point,Dayton,Ohio,45454
Marv,Richmond,35 Pearson Alley,Dallas,Texas,75236
Katey,McGee,1 Anthes Point,Norfolk,Virginia,23551
Sutton,Paxton,34963 Transport Crossing,Peoria,Illinois,61614
Terrence,Dockrill,1 Melrose Court,Tulsa,Oklahoma,74156
Gretel,Tothacot,24 Barnett Center,Amarillo,Texas,79116
Dean,Roman,1656 Roth Trail,Appleton,Wisconsin,54915
Kristofer,Fruchon,1 Lakeland Junction,Buffalo,New York,14215
Mikol,McKeney,9433 Namekagon Parkway,Mobile,Alabama,36641
Nelle,Bachnic,9 7th Hill,Boulder,Colorado,80305
Wendall,Pruce,0 Coolidge Way,San Jose,California,95173
Sammy,Hollingshead,189 Cordelia Plaza,Murfreesboro,Tennessee,37131
Luelle,Ashburne,242 David Street,Lexington,Kentucky,40546
Whitman,Ivkovic,198 Pawling Court,Jamaica,New York,11499
Selina,Harsum,1560 Lunder Street,Pittsburgh,Pennsylvania,15240
Clemmy,McNysche,466 Cherokee Center,Las Vegas,Nevada,89160
Meg,Kernoghan,9605 Tomscot Pass,Decatur,Georgia,30033
Lillis,Matuszewski,0 Fairfield Pass,Washington,District of Columbia,20546
Fania,Pittendreigh,25632 Summit Road,Loretto,Minnesota,55598
Natassia,Saker,89984 Eggendart Court,Portland,Oregon,97286
Had,Oswell,77408 Florence Crossing,Miami,Florida,33129
Blayne,Ranahan,09055 Ruskin Court,Arlington,Virginia,22212
Judi,Sapseed,8410 Spaight Terrace,San Francisco,California,94154
Haslett,Shaw,5 Maywood Crossing,Fort Lauderdale,Florida,33330
Moina,Willcot,6159 Mallard Center,San Francisco,California,94110
Torrance,Carabine,35529 Sachs Plaza,Los Angeles,California,90189
Alejandrina,Ashmore,48 Burning Wood Avenue,Honolulu,Hawaii,96840
Scott,Mouncher,940 Vermont Hill,Atlanta,Georgia,31165
Ola,Gueny,038 Debs Pass,Hattiesburg,Mississippi,39404
Ingeborg,Hassard,8528 Eliot Place,Harrisburg,Pennsylvania,17121
Harlie,Kennermann,36723 Stuart Hill,Vero Beach,Florida,32964
Ricoriki,Sheraton,8495 Old Gate Point,Los Angeles,California,90005
Natalie,Sesons,0 Cottonwood Trail,Savannah,Georgia,31410
Calv,Bramont,83 Monument Pass,Charlotte,North Carolina,28272
Allys,Medlar,35788 Hermina Crossing,Portland,Oregon,97229
Trudie,Canet,6983 Valley Edge Point,Birmingham,Alabama,35285
Margarita,Wesson,3 Glendale Place,Washington,District of Columbia,20436
Walt,Goly,25586 Grasskamp Pass,Philadelphia,Pennsylvania,19196
Domeniga,Tours,2 Burning Wood Alley,Columbia,South Carolina,29215
Tabatha,Coey,44 Blaine Center,Dallas,Texas,75221
Cissy,Gaskell,8268 Thompson Junction,Louisville,Kentucky,40256
Caterina,Swayne,850 Boyd Court,Charlotte,North Carolina,28235
Gayle,von Hagt,140 Coolidge Lane,North Little Rock,Arkansas,72199
Tucky,Muldowney,4419 Brentwood Center,Minneapolis,Minnesota,55480
Englebert,McOwen,919 Bobwhite Crossing,Jeffersonville,Indiana,47134
Bernardina,Ranger,2021 Dapin Place,Waterbury,Connecticut,06726
Ossie,Dursley,3 Jenna Lane,Arlington,Virginia,22217
Roy,Geekin,346 Dennis Point,Torrance,California,90510
Gillan,Jossum,27641 Pond Point,Kansas City,Kansas,66160
Adelle,Cuthbertson,388 Vera Crossing,Virginia Beach,Virginia,23464
Regen,Sheers,1 Veith Hill,Orlando,Florida,32885
Crosby,Pieter,602 Memorial Place,Houston,Texas,77276
Chaddy,Saich,005 Kim Lane,Rochester,New York,14604
Huntley,Solomon,42 Kinsman Point,Chicago,Illinois,60681
Averyl,Tarr,9514 Kingsford Circle,Portland,Oregon,97206
Saba,Oliveira,26284 Dexter Point,Birmingham,Alabama,35285
Agnella,Hache,410 Atwood Point,Washington,District of Columbia,20546
Bret,Gilhoolie,3 Sachtjen Terrace,Irving,Texas,75037
Orelee,McBrady,57 Farragut Drive,Charleston,West Virginia,25336
Domini,Swynley,4 Jenna Hill,San Antonio,Texas,78225
Cathy,Syphas,502 Schurz Court,Dayton,Ohio,45419
Star,Damper,1744 Upham Road,Columbus,Ohio,43268
Callean,Woollin,53653 Emmet Hill,Austin,Texas,78737
Jenda,Sarch,38 Forest Dale Junction,Saginaw,Michigan,48609
Gianina,Fattori,91771 Vidon Pass,New Haven,Connecticut,06505
Selinda,Martellini,45 School Lane,Anchorage,Alaska,99522
Carrissa,Drowsfield,1 Springs Park,Lincoln,Nebraska,68510
Bettine,Mains,89319 Weeping Birch Plaza,Corpus Christi,Texas,78415
Perl,Gosney,0 Schmedeman Avenue,Canton,Ohio,44720
Frederigo,Aguirre,345 Blue Bill Park Alley,Bronx,New York,10474
Lenee,Boij,55 Esch Way,Huntington,West Virginia,25716
Catherine,Richarson,8634 Welch Park,Montgomery,Alabama,36119
Kipper,Densie,9 Spaight Street,Austin,Texas,78715
Catherine,Langmuir,3301 Erie Junction,Sacramento,California,95838
Florrie,Gaylor,37034 Mosinee Trail,Pittsburgh,Pennsylvania,15225
Wilden,Stockney,86 Kingsford Street,Roanoke,Virginia,24048
Chancey,Marzelle,8202 Stang Circle,Winter Haven,Florida,33884
Ketti,Broadstock,9 Fremont Drive,Fort Wayne,Indiana,46867
Sidoney,Sturmey,85793 Meadow Vale Plaza,Chicago,Illinois,60681
Emilia,De la Yglesia,76 Stang Drive,Ogden,Utah,84403
Ardra,Bending,9653 Brentwood Court,Santa Rosa,California,95405
Wheeler,Agastina,69 Butternut Road,Houston,Texas,77080
Harriet,Lohoar,52851 Mandrake Way,Albuquerque,New Mexico,87195
Stephana,Tunnadine,65223 Waywood Lane,Kansas City,Missouri,64193
Basil,Redgrave,3 Raven Avenue,Lexington,Kentucky,40576
Marnia,Seed,83 Schmedeman Junction,Jamaica,New York,11431
Stephenie,Honsch,93 Delaware Parkway,Fayetteville,North Carolina,28314
Lisabeth,Tweede,0 Bluestem Avenue,Boston,Massachusetts,02298
Monica,Muris,46 Fulton Avenue,Charleston,West Virginia,25336
Forest,Petrushka,50276 Thompson Alley,Washington,District of Columbia,20392
Fabien,Brose,268 Atwood Parkway,Houston,Texas,77218
Carolan,Mallan,28 Division Park,Fort Myers,Florida,33913
Jordan,Grummitt,5 Reinke Trail,Atlanta,Georgia,31106
Salomon,Anfrey,55 Vernon Parkway,New York City,New York,10009
Ralf,Shawcross,7177 Valley Edge Junction,Sacramento,California,95838
Nico,Neiland,578 Crest Line Avenue,Cincinnati,Ohio,45233
Deane,Leeburne,2782 Leroy Point,Washington,District of Columbia,20503
Nancey,Loffill,6 Thierer Plaza,Chandler,Arizona,85246
Britteny,Tremollet,721 Emmet Hill,Cincinnati,Ohio,45233
Blondie,Oxby,5620 Express Junction,Washington,District of Columbia,20414
Michel,Carren,845 Kenwood Alley,Durham,North Carolina,27710
Page,Greep,1652 Hintze Place,Austin,Texas,78789
Alica,Chesterman,1 Center Crossing,San Antonio,Texas,78245
Timofei,Portch,0718 Springview Way,Anchorage,Alaska,99599
Gwenni,Hartropp,5 Lake View Center,Silver Spring,Maryland,20918
Celka,Newdick,4 Larry Plaza,Norcross,Georgia,30092
Daffi,Rudall,54892 Meadow Vale Plaza,Peoria,Illinois,61605
L;urette,Grewer,86106 Prairie Rose Avenue,Fort Worth,Texas,76121
Eugenie,Flanner,56 North Circle,Des Moines,Iowa,50369
Kordula,Shepherdson,09745 Express Road,Augusta,Georgia,30911
Angela,Craister,4 Anzinger Road,Abilene,Texas,79605
Jermaine,Purchall,03 Pleasure Parkway,Raleigh,North Carolina,27626
Derry,Bernadzki,9 Nova Place,Trenton,New Jersey,08650
Blondell,Blatchford,824 Lukken Place,San Francisco,California,94126
Alyssa,Jannequin,73092 Kedzie Plaza,Miami,Florida,33233
Lilly,Rubinowitz,9 Towne Park,Milwaukee,Wisconsin,53215
Lurline,Pirt,2750 Petterle Alley,Monticello,Minnesota,55565
Rupert,Alejo,72227 Thierer Park,Philadelphia,Pennsylvania,19141
Cobby,Gilchriest,95 Farragut Center,Canton,Ohio,44710
Cecily,Ledford,27530 Vermont Circle,Akron,Ohio,44329
Anita,Elphick,718 Pawling Park,Erie,Pennsylvania,16550
Druci,Brahms,74 Kensington Lane,New Haven,Connecticut,06505
Alexi,Moreno,934 Killdeer Parkway,Shawnee Mission,Kansas,66276
Raeann,Lutwyche,05 Dovetail Alley,Lake Worth,Florida,33467
Inigo,Mustin,29777 Bellgrove Park,Tampa,Florida,33694
Vincents,Bilyard,5 Ramsey Place,San Antonio,Texas,78230
Irving,Neilly,544 Dunning Road,Columbia,Missouri,65211
Derwin,Allberry,88218 Portage Plaza,Norfolk,Virginia,23551
Jacquenetta,Jikovsky,985 Lukken Park,Durham,North Carolina,27717
Cecelia,Hartland,681 Vahlen Alley,Miami,Florida,33142
Celestyna,Spavins,51989 Cottonwood Hill,Monticello,Minnesota,55585
Wynne,Van Halle,96 Loeprich Center,Young America,Minnesota,55564
Otto,Finnick,932 Miller Lane,Columbus,Ohio,43215
Lari,Pringle,43 Farmco Trail,Bethlehem,Pennsylvania,18018
Lulita,Turfitt,1627 Algoma Avenue,Mesa,Arizona,85215
Chiarra,Tomasik,5 Russell Hill,Sioux City,Iowa,51110
Perren,Aizikovitz,81767 Melrose Street,Lexington,Kentucky,40581
Leela,Lecordier,9603 Daystar Parkway,Fort Lauderdale,Florida,33355
Shandie,Chrstine,99519 Arkansas Drive,Cincinnati,Ohio,45213
Felicity,Neames,695 Rockefeller Parkway,Levittown,Pennsylvania,19058
Hayley,Muffett,4 Melody Drive,Fort Smith,Arkansas,72916
Biddie,Raatz,605 Maywood Junction,Richmond,Virginia,23260
Silva,Abramcik,99045 Oak Valley Drive,Birmingham,Alabama,35254
Rowney,Tatteshall,20 Maywood Plaza,Melbourne,Florida,32919
Elyssa,Laimable,7268 Rowland Court,Frankfort,Kentucky,40618
Doralynne,Marland,9519 South Street,Nashville,Tennessee,37235
Lilah,Fardy,31465 Anniversary Park,Palm Bay,Florida,32909
Marilyn,Maffetti,72 Autumn Leaf Avenue,Lexington,Kentucky,40515
Gina,Dowears,32 Summit Street,San Diego,California,92165
Sabina,Hartas,200 Sheridan Avenue,Tallahassee,Florida,32399
Lucille,McCoish,49148 Briar Crest Park,Cincinnati,Ohio,45208
Ciro,Tomkin,6 Talmadge Center,Clearwater,Florida,34620
Rene,Wixey,199 West Hill,San Francisco,California,94177
Twila,McAw,28 Columbus Drive,Washington,District of Columbia,20540
Anabelle,Blasio,75 Eagan Place,Washington,District of Columbia,20231
Barbara-anne,Duckerin,123 Ronald Regan Plaza,Valdosta,Georgia,31605
Gale,Cossey,9842 Stoughton Park,Atlanta,Georgia,30316
Fredrika,Pitkeathley,60 Kinsman Avenue,Saint Petersburg,Florida,33705
Koressa,Steel,7 Lunder Point,Lake Worth,Florida,33467
Lani,Gainseford,90 Ramsey Point,Raleigh,North Carolina,27621
Elfreda,Linfoot,9 Village Green Circle,Houston,Texas,77266
Truda,Keegan,138 Schlimgen Way,Boise,Idaho,83705
Uriel,Girodier,93 Badeau Court,Louisville,Kentucky,40280
Yvor,Caldow,9 Colorado Parkway,Saint Louis,Missouri,63167
Hermann,Rowe,539 Thackeray Pass,Canton,Ohio,44710
Aggy,Borgars,99 Hayes Lane,New Orleans,Louisiana,70187
Raddy,Runham,52 Tennyson Trail,Charlotte,North Carolina,28205
Glenna,Sudron,2553 Paget Point,Akron,Ohio,44329
Cordelie,Hein,2 Clyde Gallagher Way,Shawnee Mission,Kansas,66210
Diannne,Wison,170 Hazelcrest Court,Washington,District of Columbia,20508
Templeton,Choulerton,9 Logan Terrace,Vienna,Virginia,22184
Lorie,Collyns,681 Blue Bill Park Pass,Scranton,Pennsylvania,18514
Hyacinthe,Westphalen,8 Corben Center,Hicksville,New York,11854
Felipe,Hales,3 Grover Court,Lexington,Kentucky,40515
Claiborne,Redsull,40918 Becker Court,San Antonio,Texas,78265
Tallie,Durrant,39871 Commercial Lane,Hartford,Connecticut,06160
Edvard,Hamberstone,52 Utah Hill,Miami,Florida,33185
Lisa,Harcombe,45 Vidon Parkway,Oklahoma City,Oklahoma,73173
Andros,Maskall,92 Pepper Wood Way,Mobile,Alabama,36641
Douglass,Stadding,7 Sachtjen Street,Columbus,Ohio,43284
Alyosha,Antal,88 Merchant Court,Santa Barbara,California,93150
Reidar,Eyton,5428 Bartillon Street,San Bernardino,California,92415
Lucius,Galle,358 Oakridge Trail,Stockton,California,95298
Jamison,Justis,66 North Crossing,Syracuse,New York,13251
Genovera,Dargue,4 Bobwhite Trail,San Diego,California,92170
Denys,Heball,444 Maywood Trail,Wichita,Kansas,67236
Constantia,MacBrearty,88 Grim Road,New Castle,Pennsylvania,16107
Nolan,McKelvie,88001 International Drive,Madison,Wisconsin,53726
Wrennie,Cocking,039 Lotheville Avenue,Santa Monica,California,90410
Pattin,Salman,260 Homewood Alley,Columbus,Georgia,31914
Lauryn,Spowart,043 Schmedeman Hill,Brooklyn,New York,11231
Valentine,Etches,28549 Susan Point,Saint Paul,Minnesota,55146
Shalne,Pratt,98 Springview Park,Van Nuys,California,91406
Clementina,Sherer,644 Jana Pass,Indianapolis,Indiana,46239
Carolina,Meace,765 Caliangt Terrace,Montgomery,Alabama,36195
Cyrill,Aingell,935 Butternut Lane,Waterloo,Iowa,50706
Alecia,Probat,99 Independence Avenue,Dallas,Texas,75387
Roselin,Duggary,57818 Bonner Point,Wilmington,Delaware,19810
Pearle,Baszkiewicz,951 Meadow Ridge Park,Bradenton,Florida,34282
Sybil,Stooders,4 Ilene Plaza,Peoria,Illinois,61635
Florri,Rudall,7 Fulton Terrace,Atlanta,Georgia,31106
Mariejeanne,Gaddas,83788 Golf Course Drive,Sacramento,California,94263
Lucho,Shepard,990 Hooker Lane,New York City,New York,10249
Lona,Duddan,75956 Forest Trail,Juneau,Alaska,99812
Liesa,Bloggett,2246 Fallview Way,Arlington,Texas,76004
Licha,Guard,460 4th Alley,Springfield,Missouri,65898
Damaris,Kirkhouse,2 Sutteridge Alley,Sacramento,California,95818
Fredric,Picott,24 Mcguire Street,Atlanta,Georgia,30301
Rania,Ager,90 Nelson Alley,Jacksonville,Florida,32215
Barnie,Lough,83 Hazelcrest Pass,Nashville,Tennessee,37245
Brittne,Golt,0442 Almo Plaza,Tulsa,Oklahoma,74149
Betteanne,Evreux,5 Kingsford Point,Montgomery,Alabama,36125
Stormi,Pridie,48 Crescent Oaks Circle,Duluth,Georgia,30195
Bondie,Norquay,7415 Pennsylvania Terrace,Memphis,Tennessee,38197
Arlen,Dibbin,09280 Fordem Pass,Kansas City,Missouri,64114
Indira,Cadwallader,32 Cascade Center,Las Vegas,Nevada,89155
Corrinne,Olyonov,86 Carberry Place,Oklahoma City,Oklahoma,73152
Philippa,Burehill,61550 Scott Junction,San Jose,California,95108
Portie,Peltzer,616 Pierstorff Park,Milwaukee,Wisconsin,53220
Willabella,Garnam,1 Sage Street,San Diego,California,92127
Francesca,Antonopoulos,1545 Kings Trail,Houston,Texas,77250
Roberta,Buckwell,7 Sunnyside Junction,Trenton,New Jersey,08650
Tabbi,Blaydes,0 Dayton Pass,Arlington,Texas,76016
Danit,Matzke,9348 Oakridge Court,Boise,Idaho,83727
Roger,Huchot,635 Maple Center,Houston,Texas,77250
Karalee,Bevar,9504 Mcbride Parkway,New York City,New York,10292
Casi,Emburey,5 Golden Leaf Lane,Baltimore,Maryland,21203
Teresa,Macguire,0337 Village Green Avenue,Columbia,Missouri,65211
Marji,Haimes,845 Almo Hill,Buffalo,New York,14263
Georgina,Gordon-Giles,16592 Arrowood Lane,Kansas City,Missouri,64149
Maureen,Hughland,29108 Prentice Hill,Jersey City,New Jersey,07305
Chrystel,Bool,08693 6th Alley,San Diego,California,92115
Elsinore,Castagnasso,46624 Merry Plaza,Nashville,Tennessee,37240
Bone,Greenlies,18 Bluejay Hill,Pasadena,California,91109
Giffard,Laming,5 Columbus Road,Panama City,Florida,32405
Munmro,Tschierasche,9 Eagan Center,Washington,District of Columbia,20057
Sindee,Cassie,0 Morrow Alley,Murfreesboro,Tennessee,37131
Neville,Duchatel,21284 Moland Avenue,Phoenix,Arizona,85025
Frieda,Jerke,39333 Browning Drive,Dallas,Texas,75379
Pancho,McBeath,62543 Grim Circle,Raleigh,North Carolina,27615
Genovera,Layhe,2913 Crownhardt Alley,Richmond,Virginia,23242
Trula,Merrien,700 Columbus Center,Scottsdale,Arizona,85260
Lazare,Seely,0 Troy Junction,Jamaica,New York,11447
Freeman,Duley,6100 Moose Way,Portland,Oregon,97206
Katharina,Marielle,9 Union Circle,Atlanta,Georgia,30351
Izaak,Phelp,823 Elmside Trail,Winston Salem,North Carolina,27105
Lombard,Drinkwater,599 Corry Point,Chattanooga,Tennessee,37410
Mellicent,Roddan,41 Barnett Point,Philadelphia,Pennsylvania,19172
Bridgette,Meriott,0791 Milwaukee Lane,Miami,Florida,33142
Teddie,McNickle,82 Swallow Park,Buffalo,New York,14225
Dannye,Duling,62175 Mallard Drive,Stockton,California,95210
Electra,Tregonna,2 Aberg Drive,Littleton,Colorado,80126
Brucie,Paddison,9 Ridgeway Parkway,Evanston,Illinois,60208
Duffy,Herion,1 Sommers Avenue,Portsmouth,New Hampshire,03804
Wash,Geggus,05244 Portage Alley,Cleveland,Ohio,44177
Lianna,Goodluck,831 Forster Center,Saint Louis,Missouri,63104
Zaccaria,Ritmeier,74944 Anderson Place,Springfield,Illinois,62756
Althea,Danett,2565 Fairfield Road,Gulfport,Mississippi,39505
Ezri,Chedzoy,46 Logan Place,Green Bay,Wisconsin,54305
Jacklin,Allkins,66 Loomis Court,Chicago,Illinois,60663
Ginni,Majury,8 Mosinee Parkway,Florence,South Carolina,29505
Helena,Quant,5483 Troy Drive,Cleveland,Ohio,44177
Benny,Jagels,796 Susan Place,New York City,New York,10249
Jerald,Geraldez,137 Dovetail Drive,Anchorage,Alaska,99517
Annabela,Elsie,0353 Rutledge Junction,Las Vegas,Nevada,89140
Belita,Poleykett,5 Longview Parkway,Oklahoma City,Oklahoma,73104
Querida,Simonou,5965 Portage Place,Shreveport,Louisiana,71105
Siusan,Barde,07896 Gina Terrace,Hampton,Virginia,23668
Skippie,Segar,3 Summerview Terrace,Daytona Beach,Florida,32128
Cortney,Ladds,0 Stuart Drive,El Paso,Texas,88535
Livvy,Ince,709 Dapin Crossing,Springfield,Massachusetts,01152
Ashia,Evensden,068 Mifflin Parkway,Phoenix,Arizona,85083
Dom,Espley,26 Crest Line Point,Cincinnati,Ohio,45218
Olivie,Scalera,691 Main Crossing,Providence,Rhode Island,02905
Zelda,Nannoni,574 Sullivan Hill,Las Vegas,Nevada,89160
Celisse,Elmhirst,26 Elgar Road,Bakersfield,California,93399
Stacy,Learmonth,8 Schmedeman Junction,Los Angeles,California,90050
Itch,Kynder,9218 Fordem Court,Las Vegas,Nevada,89140
Alyda,Markwell,75 Towne Court,Manchester,New Hampshire,03105
Alon,Petersen,4 Havey Court,Appleton,Wisconsin,54915
Padriac,Pourvoieur,4290 Elmside Crossing,Albany,New York,12205
Harp,Conningham,53 Riverside Way,Chattanooga,Tennessee,37450
Jessee,Sancto,67 Nobel Pass,Houston,Texas,77025
Sly,Gyrgorcewicx,484 Merchant Road,Louisville,Kentucky,40225
Aymer,Vasenin,3 Russell Road,Duluth,Minnesota,55805
Carver,Gonsalo,86273 Maple Wood Drive,White Plains,New York,10633
Johanna,McKernan,4129 Pennsylvania Park,Palm Bay,Florida,32909
Avril,Vanyarkin,78853 Hintze Avenue,Woburn,Massachusetts,01813
Ailis,Undrell,1990 Blackbird Alley,Columbus,Ohio,43215
Gwen,Ogborn,66 Prairie Rose Point,El Paso,Texas,88579
Pierson,Ingold,95151 Tomscot Road,Clearwater,Florida,33763
Maynard,Cox,29 Bartillon Terrace,Baltimore,Maryland,21203
Mala,Alliott,1440 Lotheville Trail,Corpus Christi,Texas,78465
Randi,Benoey,47628 Green Ridge Lane,Dayton,Ohio,45490
Karoline,Nathan,432 Del Mar Terrace,San Jose,California,95150
Wiley,Zaczek,2376 Barby Circle,Fort Lauderdale,Florida,33345
Gretna,Kolodziej,37538 Harper Crossing,Atlanta,Georgia,30301
Hasheem,Durant,93 Sutteridge Junction,Des Moines,Iowa,50981
Becky,Bruhnke,61151 Debra Road,Houston,Texas,77288
Gillan,D'eathe,89604 Darwin Pass,San Bernardino,California,92415
Darn,Yurlov,7 Susan Street,Pensacola,Florida,32520
Warner,Blackney,3382 Talisman Plaza,Wichita,Kansas,67230
Flore,Offell,9228 La Follette Drive,Fresno,California,93715
Cristiano,Craise,6863 Comanche Trail,Dearborn,Michigan,48126
Bennett,Walkinshaw,4 Hallows Avenue,Baltimore,Maryland,21229
Elvyn,Coneybeare,0639 Maple Drive,Fort Lauderdale,Florida,33345
Nellie,Braid,9715 5th Crossing,Sarasota,Florida,34276
Edwina,Robel,15236 Buell Parkway,Columbus,Ohio,43215
Chelsey,McLevie,22 Westerfield Road,Tulsa,Oklahoma,74149
Annabell,Beckinsale,2 Hoffman Pass,Iowa City,Iowa,52245
Barbie,Cotes,4054 Kim Road,Miami,Florida,33153
Harold,Goacher,40 Cottonwood Way,Knoxville,Tennessee,37919
Saunderson,Comolli,1 Mcguire Road,Syracuse,New York,13205
Hilary,Turfs,767 Maywood Park,Pueblo,Colorado,81005
Shirley,Piotrowski,8628 Shopko Point,Louisville,Kentucky,40280
Flory,Gryglewski,85 Dorton Way,Sacramento,California,94263
Colleen,Godfroy,1140 Burning Wood Drive,Topeka,Kansas,66642
Peadar,Lynock,2 Hoepker Avenue,Greeley,Colorado,80638
Hilde,Pimlock,48894 Forest Run Junction,Baton Rouge,Louisiana,70815
Octavia,Abrahamian,39944 Bashford Way,Columbia,South Carolina,29203
Freddy,Arthey,046 Shasta Trail,Colorado Springs,Colorado,80930
Berny,Blasius,27643 Lindbergh Place,Reno,Nevada,89510
Wendel,Newe,5874 Dovetail Crossing,Portland,Oregon,97240
Conn,Vertey,8 Grover Trail,New York City,New York,10034
Jacki,Blasik,591 Novick Court,Battle Creek,Michigan,49018
Delmer,Skaife d'Ingerthorpe,593 Valley Edge Point,Seattle,Washington,98115
Pavel,Stonnell,84 Jay Road,San Diego,California,92137
Carey,Hrishanok,1 Fairview Circle,Riverside,California,92505
Donalt,Papes,8 Menomonie Street,Detroit,Michigan,48232
Jarrett,McFade,791 Dovetail Street,Portland,Oregon,97286
Betti,Asser,92376 Nancy Avenue,Jackson,Tennessee,38308
Olivette,Shwenn,7527 Dovetail Alley,Savannah,Georgia,31422
Clemmy,Alywen,499 Nova Plaza,Dallas,Texas,75353
Lynnet,Reily,3 Hauk Street,Birmingham,Alabama,35220
Sawyere,Medendorp,42 Ridgeway Pass,Lubbock,Texas,79491
Samara,Twatt,1 Saint Paul Parkway,Montgomery,Alabama,36104
Clem,Wells,794 Village Green Parkway,Las Vegas,Nevada,89193
Gannon,Ambrosio,7194 Blue Bill Park Avenue,New Bedford,Massachusetts,02745
Rosabelle,Ferrettini,91 Cambridge Hill,Toledo,Ohio,43635
Sasha,Leneve,98 Kingsford Parkway,Simi Valley,California,93094
Liuka,Bencher,7065 Thompson Pass,Baton Rouge,Louisiana,70883
Claretta,McMichell,88403 Oak Valley Street,Bradenton,Florida,34210
Tybalt,Allingham,85 Ramsey Alley,Memphis,Tennessee,38181
Xylia,Audritt,969 Fremont Avenue,Carol Stream,Illinois,60158
Becka,Kaman,395 Namekagon Alley,Kansas City,Kansas,66105
Celestia,Gormally,271 Valley Edge Place,Jamaica,New York,11447
Siegfried,Adney,878 Crescent Oaks Hill,Mesa,Arizona,85205
Fancie,Longhurst,91425 Kensington Road,Naperville,Illinois,60567
Ly,Artindale,45 North Road,Spring,Texas,77386
Devin,Asee,7589 Ludington Lane,Dallas,Texas,75221
Juliana,Delmage,786 Orin Pass,San Diego,California,92115
Pepita,Eagland,2 Longview Circle,Sacramento,California,94263
Ky,Whitear,1 Toban Hill,Petaluma,California,94975
Hashim,Edwicke,3533 Talmadge Street,Anaheim,California,92805
Elladine,Quarlis,425 Marquette Junction,Kansas City,Missouri,64114
Flss,Hamsley,9589 Mayfield Terrace,San Francisco,California,94121
Rhett,Pantry,6 Buhler Plaza,Tampa,Florida,33605
Sadie,Gulliford,364 Judy Point,San Jose,California,95128
Valencia,Archdeacon,37432 Corscot Park,Houston,Texas,77075
Jobina,Mechem,0407 Union Terrace,Minneapolis,Minnesota,55402
Genovera,Domaschke,419 Sauthoff Point,Washington,District of Columbia,20051
Cecelia,Ravenscroft,723 Westend Road,Brea,California,92822
Bree,Heims,81 Arizona Road,Daytona Beach,Florida,32128
Dosi,De La Salle,4 Prairie Rose Road,Houston,Texas,77234
Kippie,Dalley,93 Blue Bill Park Place,Cleveland,Ohio,44125
Deana,Shakesby,68 Lillian Court,Orlando,Florida,32825
Stanford,Showl,8 7th Circle,Galveston,Texas,77554
Gerti,Owbridge,0913 Pawling Drive,Indianapolis,Indiana,46216
Theodosia,Cogman,48813 Oak Valley Road,Oklahoma City,Oklahoma,73114
Danette,Trundler,7454 Pepper Wood Drive,Montgomery,Alabama,36109
Chandra,Ballantyne,2 Village Pass,Arlington,Virginia,22217
Aura,Wallas,2507 Paget Way,Jacksonville,Florida,32209
Witty,Hayden,3112 Melrose Lane,Flint,Michigan,48505
Trixi,Maletratt,8 Merrick Hill,Saint Paul,Minnesota,55115
Ilka,Cozens,0 Duke Point,Portland,Oregon,97232
Brenda,Browne,869 Golden Leaf Avenue,Fort Worth,Texas,76105
Daisey,Poyzer,1 Ridgeway Street,Hialeah,Florida,33018
Brandea,Clee,24 Rigney Parkway,Philadelphia,Pennsylvania,19120
Ker,Collop,9465 Sommers Court,Hialeah,Florida,33013
Tobe,Causey,2986 Mosinee Avenue,Panama City,Florida,32412
Jeromy,Krelle,656 Waywood Street,Charleston,West Virginia,25305
Lonni,Eberlein,37607 Melvin Center,Topeka,Kansas,66606
Gerti,Limbourne,284 Dakota Court,Camden,New Jersey,08104
Micheline,Ackred,5912 Dixon Crossing,Greensboro,North Carolina,27499
Jill,Mincher,860 Basil Court,Minneapolis,Minnesota,55448
Angil,MacRory,5099 Wayridge Hill,Round Rock,Texas,78682
Sheffie,Curtoys,54 Shasta Street,Las Vegas,Nevada,89140
Liv,Landal,358 Eagan Terrace,Chicago,Illinois,60624
Constantine,Schellig,56 John Wall Way,Nashville,Tennessee,37228
Rana,Skillett,206 Fordem Drive,Saint Petersburg,Florida,33742
Raquel,Daish,6840 Acker Road,Mesa,Arizona,85215
Loydie,Nisco,164 Buhler Parkway,Huntsville,Alabama,35810
Hort,Derell,911 Marquette Plaza,Reno,Nevada,89595
Filmore,Bader,271 Eastlawn Pass,Fort Wayne,Indiana,46825
Brucie,Riccardi,0920 Ilene Lane,Clearwater,Florida,34629
Oralla,Slayton,7401 Bayside Alley,Albany,New York,12210
Edeline,McDermid,207 Reinke Road,Norwalk,Connecticut,06859
Jenny,Brando,2 Elgar Drive,Savannah,Georgia,31410
Skelly,Fedoronko,136 Oriole Crossing,Arlington,Virginia,22244
Teodor,Bushell,133 Bartelt Drive,Asheville,North Carolina,28805
Lida,Yurocjhin,21 Dennis Lane,Killeen,Texas,76544
Porty,O'dell,0269 Dexter Way,Atlanta,Georgia,31119
Gustaf,Weildish,50 Sullivan Alley,Fullerton,California,92640
Arny,Carrodus,4690 Graedel Way,Washington,District of Columbia,20508
Neile,Jess,3323 Washington Terrace,Nashville,Tennessee,37220
Garek,Surfleet,164 Mockingbird Drive,Arlington,Virginia,22205
Shelia,De'Vere - Hunt,45 Welch Junction,Albuquerque,New Mexico,87105
Nikita,Vater,9 Hooker Place,Little Rock,Arkansas,72204
Sadella,Cossem,2177 Twin Pines Terrace,Norfolk,Virginia,23514
Hamil,Tunnicliff,6 Graedel Point,Cleveland,Ohio,44177
Arabelle,Cawse,04 Banding Drive,Montgomery,Alabama,36195
Franciskus,Staggs,88556 Shoshone Drive,Madison,Wisconsin,53779
Tabitha,Spridgen,90 Autumn Leaf Hill,San Diego,California,92165
Marlin,Cathesyed,38474 Brentwood Parkway,Tampa,Florida,33686
Libbie,Spileman,54879 Rieder Circle,Silver Spring,Maryland,20904
Lorin,Gadesby,79337 Sunbrook Street,Albany,New York,12222
Gussi,Tubridy,7 Granby Alley,Seattle,Washington,98115
Amelie,Francois,5368 Clarendon Center,Ann Arbor,Michigan,48107
Reba,Dunks,242 Pearson Street,Miami,Florida,33175
Fionnula,Eburah,0 Ramsey Way,Houston,Texas,77090
Delcina,Ambrosoni,50520 Westport Way,Dallas,Texas,75210
Abran,Skellion,01461 Hauk Hill,Corona,California,92883
Jaquelin,Dirkin,2206 Northfield Trail,Flint,Michigan,48505
Skipton,Ure,7 Fair Oaks Road,Hot Springs National Park,Arkansas,71914
Hewie,Otter,93533 Northfield Road,Tacoma,Washington,98447
Megan,Guppey,243 Merry Hill,Palm Bay,Florida,32909
Marijn,Goosey,493 Scott Center,Sioux Falls,South Dakota,57193
Jehanna,Brighty,086 High Crossing Parkway,Austin,Texas,78764
Fredra,Ashment,2 Forest Run Junction,Fort Pierce,Florida,34949
Clayborne,Mapplethorpe,3719 Londonderry Trail,Concord,California,94522
Johnathan,Zanre,8 Bunting Lane,Los Angeles,California,90020
Fleur,Redman,16 Fulton Road,Denver,Colorado,80255
Maris,Coysh,283 Warner Drive,Houston,Texas,77223
Dode,Lowder,9293 Oriole Drive,Las Vegas,Nevada,89166
Yale,Casey,2 Old Shore Lane,Charleston,West Virginia,25305
Em,Cohr,9712 Debra Court,Dallas,Texas,75342
Cherry,Rough,64 Banding Road,Topeka,Kansas,66667
Angil,Hathaway,82 Prairieview Street,Fort Myers,Florida,33994
Hanna,Scholey,8 Goodland Junction,Colorado Springs,Colorado,80915
Vina,Brockett,08 Sauthoff Drive,Santa Rosa,California,95405
Leese,Crowcroft,961 East Drive,Rochester,New York,14614
Tabina,Yurshev,9227 Clove Place,Gilbert,Arizona,85297
Ashlen,Youtead,5 Upham Park,New York City,New York,10045
Kerwin,Doyle,7 Shopko Point,Akron,Ohio,44310
Waneta,Klimkovich,57 Cottonwood Road,Trenton,New Jersey,08619
Almeta,Queyos,8068 Golf Terrace,Hyattsville,Maryland,20784
Milton,Maving,9791 Talisman Pass,Las Vegas,Nevada,89140
Mychal,Pyatt,85 Springs Court,Salt Lake City,Utah,84145
Tiffi,Tummasutti,67 Rockefeller Park,Fort Pierce,Florida,34949
Rosaleen,Wilsone,16744 Prairie Rose Crossing,Minneapolis,Minnesota,55487
Karyl,Monteith,0 Grim Circle,Rochester,New York,14619
Trip,Bache,4 International Street,Waco,Texas,76711
Minetta,Winscomb,59 Manufacturers Circle,Trenton,New Jersey,08695
Andrus,Tegler,0535 Grim Hill,Washington,District of Columbia,20073
Weylin,Fleckno,332 Northview Trail,Denton,Texas,76205
Demeter,Westmerland,2409 Trailsway Trail,Little Rock,Arkansas,72231
Grantham,Royston,26 Bashford Drive,Cincinnati,Ohio,45233
Nonna,Espinas,20618 Glacier Hill Lane,Jacksonville,Florida,32244
Clara,Ruppelin,4125 Claremont Hill,Atlanta,Georgia,30301
Curcio,McWhirter,3635 American Ash Trail,Ashburn,Virginia,22093
Bernette,Cheavin,2508 Kinsman Pass,Birmingham,Alabama,35285
Leonelle,Baggally,6 Charing Cross Trail,Fort Collins,Colorado,80525
Erskine,Gowar,08 Twin Pines Parkway,Lexington,Kentucky,40596
Gerhardine,Butchart,0950 Kenwood Junction,Eugene,Oregon,97405
Marilin,MacElholm,5894 Longview Trail,Dallas,Texas,75310
Missie,Mollnar,7 Crownhardt Street,Lansing,Michigan,48901
Ashleigh,Czajkowski,156 Mallory Hill,San Jose,California,95194
Row,Coonihan,9266 Red Cloud Alley,Atlanta,Georgia,30358
Hillard,Pechet,82026 Pond Circle,Anaheim,California,92825
Melony,Chorlton,24 Oakridge Circle,Lubbock,Texas,79452
Sarena,Limerick,4 Basil Court,Oklahoma City,Oklahoma,73114
Ailis,Skirling,45 Green Ridge Way,Kansas City,Missouri,64101
Irita,Roobottom,19 Oak Valley Court,Chicago,Illinois,60624
Ford,Alasdair,1362 Northridge Plaza,Tulsa,Oklahoma,74103
Sydel,Thistleton,54385 Mitchell Trail,Atlanta,Georgia,30343
Yorgo,Fluger,8 Hoard Court,Charleston,West Virginia,25389
Prudi,Iashvili,46179 Mayfield Terrace,Syracuse,New York,13217
Modesta,Morrilly,49071 Farmco Junction,Dayton,Ohio,45454
Ronny,Ninnotti,4 Hovde Lane,Washington,District of Columbia,20088
Juliann,MacAdam,808 Kipling Hill,Sioux Falls,South Dakota,57188
Hamilton,De Anesy,8938 Eagle Crest Plaza,San Diego,California,92196
Ciel,Ciciura,0 Alpine Junction,West Hartford,Connecticut,06127
Eadith,Burgan,1153 Boyd Circle,Washington,District of Columbia,20310
Vinny,Lowy,45 Sherman Center,Fort Collins,Colorado,80525
Timothea,Hymer,67 Sommers Trail,Fargo,North Dakota,58122
Ingunna,Hoffmann,073 Fieldstone Terrace,Charleston,West Virginia,25362
Kristo,Seivertsen,74 Merrick Alley,Stockton,California,95219
Dare,Busek,405 Forest Alley,Santa Rosa,California,95405
Jacky,McQuode,6594 Stone Corner Crossing,Phoenix,Arizona,85067
Collin,Rottcher,575 Meadow Valley Court,Shawnee Mission,Kansas,66210
Harv,Brandli,93 Fairview Center,Washington,District of Columbia,20557
Jozef,Keese,365 Morrow Street,Reno,Nevada,89519
Whitaker,Southcott,1 Hagan Road,San Francisco,California,94164
Susanne,Berthelet,02 Portage Parkway,Carson City,Nevada,89714
Tracy,Smedmoor,75649 Lukken Alley,Redwood City,California,94064
Emilie,Pettifer,99 2nd Trail,Evansville,Indiana,47732
Heywood,Moulster,2 Ridgeview Avenue,Atlanta,Georgia,31136
Afton,Penhall,66 Corben Lane,Austin,Texas,78703
Faye,Uvedale,611 Meadow Valley Pass,Denton,Texas,76210
Cami,Lundie,4514 Spaight Road,Tucson,Arizona,85710
Gerome,Bon,3 Schmedeman Street,San Francisco,California,94121
Sashenka,Van Geffen,61879 Huxley Circle,Boise,Idaho,83711
Richy,McGlew,09 Sunbrook Drive,Warren,Ohio,44485
Ranee,Lordon,3616 Commercial Parkway,Kalamazoo,Michigan,49006
Udell,Camus,94 Holy Cross Parkway,Joliet,Illinois,60435
Poul,Castanie,9494 North Alley,Des Moines,Iowa,50315
Mickie,Jevon,70 Hintze Terrace,Richmond,Virginia,23220
Gus,Matushevich,91019 Bunker Hill Alley,Lexington,Kentucky,40524
Cordelia,Cristofvao,456 Marquette Park,San Diego,California,92127
Hedvig,Newburn,8 Pennsylvania Way,Sacramento,California,95818
Feliks,Gardner,9251 Hanson Point,El Paso,Texas,88514
Emmaline,Cocker,99968 Talisman Court,Missoula,Montana,59806
Crosby,Coatsworth,83656 Scofield Crossing,Independence,Missouri,64054
Giles,Hatfull,9027 Harper Hill,Colorado Springs,Colorado,80930
Dot,Barford,1412 Dayton Hill,Indianapolis,Indiana,46221
Madeleine,Hache,14721 High Crossing Lane,Honolulu,Hawaii,96820
Adela,Lapsley,2 Susan Avenue,Rochester,New York,14604
Natale,Rupke,3417 Carey Parkway,Atlanta,Georgia,30316
Roxy,Gerber,91 Village Street,Baton Rouge,Louisiana,70883
Kala,Vallance,01494 Hayes Street,New York City,New York,10125
Randolph,Merwe,993 Welch Alley,Bradenton,Florida,34205
Aurora,Nussii,156 Main Junction,Richmond,Virginia,23213
Tami,Tremmil,1 Monterey Trail,Kansas City,Missouri,64160
Yul,Brealey,0 Dunning Court,Pomona,California,91797
Lauree,Bygott,877 Namekagon Place,Anderson,South Carolina,29625
Deeanne,Jatczak,15836 Kedzie Avenue,Brooksville,Florida,34605
Harlene,Storek,424 Talmadge Court,Chicago,Illinois,60614
Wylma,Ghiotto,2226 Warner Point,Tacoma,Washington,98447
Tucker,Harmar,95 Dahle Road,Amarillo,Texas,79182
Cassandry,Bradforth,08 Fulton Center,Las Cruces,New Mexico,88006
Tammy,Duinkerk,36090 Main Trail,Lancaster,Pennsylvania,17622
Brigid,Oleksinski,64 Scoville Alley,Providence,Rhode Island,02905
Lyman,Eskrigge,2 Beilfuss Hill,Baltimore,Maryland,21265
Martyn,Vaux,78 Judy Junction,Berkeley,California,94705
Shepherd,Pendock,5182 Lillian Junction,Memphis,Tennessee,38181
Sioux,Habbes,863 Sutteridge Place,Louisville,Kentucky,40280
Lamont,Dawney,7 Michigan Parkway,San Francisco,California,94110
Lolita,Dufaire,39389 Starling Center,Duluth,Minnesota,55805
Elita,Hancke,177 Dayton Court,Chicago,Illinois,60624
Warde,Crole,6 Grim Court,Las Vegas,Nevada,89140
Christy,McPhelimy,2767 Pennsylvania Crossing,New Orleans,Louisiana,70183
Megan,Burbudge,624 Boyd Trail,New York City,New York,10170
Nerissa,Airy,3 Chinook Terrace,Pompano Beach,Florida,33064
Maurie,Duley,7069 Arrowood Road,Tuscaloosa,Alabama,35405
Byran,Barcke,54553 Arizona Way,Portland,Oregon,97286
Marven,Birden,71 Beilfuss Avenue,Philadelphia,Pennsylvania,19136
Darcy,Caley,58775 Golf Course Center,Oklahoma City,Oklahoma,73147
Stephine,Lidgey,6174 Bobwhite Center,Sarasota,Florida,34276
Deb,Hearst,7 Merchant Avenue,Burbank,California,91505
Adams,Pedycan,283 Muir Drive,Fort Worth,Texas,76129
Theodoric,Seman,79 Schiller Trail,Everett,Washington,98206
Karlan,Taks,23 Autumn Leaf Point,Saint Paul,Minnesota,55172
Hermia,Enever,6 Clove Junction,Columbus,Ohio,43240
Mariele,Gawthrope,08972 Fulton Plaza,Carol Stream,Illinois,60351
Othelia,Francois,55 Spohn Alley,New York City,New York,10170
Jory,Diggell,1 Susan Drive,Cincinnati,Ohio,45999
Beale,Sawney,18048 Duke Alley,Norwalk,Connecticut,06859
Bettina,Walcher,035 Fulton Avenue,New York City,New York,10060
Alison,Ambrose,5 American Drive,Omaha,Nebraska,68134
Emmy,Pressman,2613 Michigan Plaza,Indianapolis,Indiana,46216
Anastasia,Sexon,0752 Warner Crossing,Boston,Massachusetts,02124
Keri,Rey,473 Scofield Terrace,Atlanta,Georgia,30323
Gunther,Breckon,68408 Golf Alley,Largo,Florida,33777
Melamie,Gietz,57497 Mendota Circle,Pueblo,Colorado,81005
Ly,Casellas,11 Maryland Plaza,Fort Worth,Texas,76198
Germayne,Camble,6 Shelley Avenue,Spokane,Washington,99260
Bethina,Inch,3654 Commercial Court,Arlington,Virginia,22212
Jennine,Warne,64 Walton Hill,Corpus Christi,Texas,78426
Avigdor,Baudy,6 Hagan Court,Newport News,Virginia,23612
Amity,Breakwell,44196 Erie Junction,San Francisco,California,94110
Karrah,Merriott,108 American Drive,Los Angeles,California,90040
Conway,Calbrathe,1973 Hudson Hill,Louisville,Kentucky,40293
Pietro,Samme,10 Prentice Parkway,Denver,Colorado,80243
Emilie,Sebert,59151 Randy Hill,Davenport,Iowa,52804
Alejandra,Whoolehan,84 Bultman Plaza,Chicago,Illinois,60641
Hogan,Domenicone,79149 Boyd Court,Reston,Virginia,22096
Beryle,Slimm,7271 Utah Street,Tulsa,Oklahoma,74108
Ally,Murdie,9 Stephen Trail,Washington,District of Columbia,20397
Deeann,Passion,70679 Myrtle Way,Pasadena,California,91199
Brien,Duiguid,79 Annamark Park,Omaha,Nebraska,68105
Freda,Finlow,673 Briar Crest Parkway,Portsmouth,Virginia,23705
Sacha,Russan,62119 Monica Parkway,Norfolk,Virginia,23504
Kelbee,Gherardelli,3 Paget Street,Fort Lauderdale,Florida,33320
Lucio,Scrivinor,29 Evergreen Crossing,Washington,District of Columbia,20420
Deny,Hyett,729 Westend Junction,Houston,Texas,77020
Rhodie,Oldroyde,6 Claremont Park,Richmond,Virginia,23260
Mathilde,McCrainor,3249 Waubesa Plaza,Canton,Ohio,44705
Vick,Fidgin,3 Arizona Street,Memphis,Tennessee,38119
Pebrook,McOnie,49 Washington Way,Saint Paul,Minnesota,55166
Gael,Gorgen,4 Sommers Trail,Pensacola,Florida,32575
Meade,Posen,6 Melvin Place,Milwaukee,Wisconsin,53285
Eugine,Lanfranconi,0773 Hooker Plaza,Glendale,California,91205
Kory,Portman,701 Holy Cross Pass,Phoenix,Arizona,85099
Stephine,Keen,6912 Village Hill,Omaha,Nebraska,68105
Cassondra,Howlings,18 Autumn Leaf Pass,Baltimore,Maryland,21203
Kiley,Twomey,428 Burning Wood Crossing,Bozeman,Montana,59771
Pascale,Bifield,45 Kinsman Pass,Lansing,Michigan,48919
Anallise,Yarn,90946 Cambridge Lane,Denver,Colorado,80299
Hedwiga,Yegorovnin,34 Springs Junction,Brooklyn,New York,11220
Augy,Dymocke,23301 Troy Pass,Dearborn,Michigan,48126
Chanda,Verdey,029 Carioca Lane,Littleton,Colorado,80126
Dale,Leile,58906 Stone Corner Park,Knoxville,Tennessee,37914
Shamus,Ellse,8716 Eastwood Plaza,Southfield,Michigan,48076
Leda,Huniwall,657 Crowley Point,Durham,North Carolina,27705
Kania,Leward,696 Arizona Avenue,Athens,Georgia,30610
Albina,Richmond,0589 Prentice Junction,Cleveland,Ohio,44105
Kinnie,Muzzlewhite,6 Golf View Crossing,Youngstown,Ohio,44511
Charmion,Andreix,7 Briar Crest Place,Amarillo,Texas,79188
Bab,Heggs,985 Merrick Way,Fort Collins,Colorado,80525
Rosette,Krates,76 Meadow Valley Lane,Ventura,California,93005
Hakim,Sculley,8758 Colorado Drive,Washington,District of Columbia,20036
Heloise,Castree,11 5th Lane,Irvine,California,92612
Elsinore,Zanetti,59 Marquette Parkway,Richmond,Virginia,23220
Chariot,Shillito,466 Marquette Junction,Dulles,Virginia,20189
Letta,Goddard,00 Sundown Avenue,Newton,Massachusetts,02458
Gusti,Verrall,51 Paget Lane,Roanoke,Virginia,24020
Nananne,Rontsch,7 Parkside Pass,Dallas,Texas,75379
Gerta,Cleyne,989 Wayridge Pass,Newark,New Jersey,07104
Isidor,Cauderlie,175 Bunting Alley,Houston,Texas,77271
Ariel,Camus,28091 Ludington Drive,Des Moines,Iowa,50305
Doti,Hardington,025 Hallows Avenue,College Station,Texas,77844
Whit,Postins,422 Iowa Court,Santa Fe,New Mexico,87505
Maddie,Swains,869 Corben Crossing,Sacramento,California,95813
Rogers,Frankis,98 Golden Leaf Place,Ocala,Florida,34479
Rutger,Birtwistle,2162 Kensington Lane,Peoria,Arizona,85383
Zaccaria,Baumler,23782 Grayhawk Drive,Newark,New Jersey,07195
Katrina,Boyen,93835 Lakeland Center,Buffalo,New York,14263
Marian,Crick,8 Elgar Way,Independence,Missouri,64054
Dennis,McNeely,7 Springview Crossing,Salt Lake City,Utah,84110
Raquel,Konertz,0934 Boyd Point,Erie,Pennsylvania,16565
Zea,Busfield,64 Algoma Road,Tulsa,Oklahoma,74193
Roxie,Gasgarth,26 1st Place,Las Vegas,Nevada,89155
Gretal,Mattiello,53894 Haas Circle,San Francisco,California,94164
Joaquin,Eddy,70 Ronald Regan Drive,Woburn,Massachusetts,01813
Ola,Monckton,23534 Forster Trail,Houston,Texas,77276
Adriaens,Brumbye,9 Dexter Pass,Philadelphia,Pennsylvania,19131
Zea,Macguire,6852 South Avenue,Cedar Rapids,Iowa,52410
Rahal,Vakhonin,27 Bashford Junction,Silver Spring,Maryland,20904
Meagan,Trowell,96925 Towne Junction,South Bend,Indiana,46699
Teresita,Lornsen,8 Sundown Plaza,Jacksonville,Florida,32244
Collie,Lyddiatt,82 Vernon Parkway,Mobile,Alabama,36670
Adela,Shave,98 Dorton Center,Omaha,Nebraska,68179
Onfroi,Bambrough,059 Lakewood Gardens Court,Trenton,New Jersey,08608
Clerc,Dudbridge,38 Oneill Court,Sacramento,California,94286
Denys,Sommersett,396 Surrey Trail,Miami,Florida,33180
Germain,Venners,67 Banding Pass,Raleigh,North Carolina,27690
Betteann,Sweeny,63532 Mcbride Plaza,Inglewood,California,90305
Engracia,Stoodale,66089 Maryland Point,Spokane,Washington,99205
Asa,Lagden,19 Bunting Way,Macon,Georgia,31210
Malanie,Pevsner,8945 Waxwing Court,Delray Beach,Florida,33448
Myron,Balloch,52833 Nelson Place,Louisville,Kentucky,40287
Rock,Lorain,0450 Doe Crossing Trail,Kansas City,Missouri,64179
Estelle,Perico,56842 Hanson Parkway,Fort Wayne,Indiana,46805
Mortimer,Nice,312 Fairfield Trail,Philadelphia,Pennsylvania,19115
Meade,Pryell,55552 Rieder Center,Shreveport,Louisiana,71166
Ina,Boissier,0103 Heffernan Place,Santa Fe,New Mexico,87505
Marika,Tucsell,147 Lakeland Pass,Homestead,Florida,33034
Ivor,Pennicott,598 Barby Hill,Tucson,Arizona,85720
Hanson,Tugman,019 Jay Way,Detroit,Michigan,48232
Gerti,Asee,271 Rockefeller Road,San Diego,California,92153
Arlana,Dorin,56577 7th Avenue,Washington,District of Columbia,20392
Nat,Hunday,91778 Mcbride Road,Sacramento,California,94250
Chrissy,Buddle,0 Aberg Street,Saint Petersburg,Florida,33742
Roanna,Jordanson,194 Towne Road,Dallas,Texas,75265
Deena,Ivery,7066 Brown Hill,Lafayette,Louisiana,70505
Maryrose,Caton,515 Stoughton Road,Charleston,South Carolina,29424
Kora,Bonson,365 Forest Run Street,New Brunswick,New Jersey,08922
Kameko,Bruster,46392 Main Trail,Naperville,Illinois,60567
Amil,Kohnert,6 Division Parkway,New York City,New York,10275
Vivienne,Sachno,364 Mendota Alley,Orange,California,92867
Noelle,Stephenson,98910 Stone Corner Center,Pensacola,Florida,32520
Julienne,D'Abbot-Doyle,4 Anderson Place,El Paso,Texas,88553
Odetta,Strowger,31629 Manitowish Park,Omaha,Nebraska,68105
Annissa,Kovacs,188 Maywood Court,Trenton,New Jersey,08695
Anthiathia,Vinecombe,34283 Mitchell Street,Peoria,Illinois,61640
Domenico,Cuttings,97785 Maryland Lane,Jamaica,New York,11407
Bogart,Durak,161 Heffernan Road,Fort Lauderdale,Florida,33330
Garek,Piscopo,615 Paget Junction,Greenville,South Carolina,29610
Winnifred,Vescovo,8893 Johnson Lane,Louisville,Kentucky,40233
Nan,Drayn,53 Sunfield Plaza,Washington,District of Columbia,20520
Kelly,Snoden,6048 American Ash Plaza,Tucson,Arizona,85754
Tori,Nuschke,579 Northview Way,Salt Lake City,Utah,84189
Auberon,Soeiro,1137 Buena Vista Road,Cedar Rapids,Iowa,52410
Ileane,Curmi,7 Caliangt Terrace,San Francisco,California,94154
Aron,Copnell,1 3rd Point,Shreveport,Louisiana,71115
Jorie,Bettison,1773 Riverside Avenue,Schenectady,New York,12305
Dyan,Bealing,6 Havey Pass,White Plains,New York,10606
Clem,Hares,5 Delladonna Place,Springfield,Illinois,62711
Ozzy,Wehden,08078 Elka Way,San Antonio,Texas,78291
Benetta,Lowis,7858 Katie Road,Washington,District of Columbia,20220
Sigismundo,Azemar,622 Scott Point,San Antonio,Texas,78230
Cassy,Windows,301 Bashford Circle,Myrtle Beach,South Carolina,29579
Becca,Elland,261 Mifflin Way,Santa Monica,California,90405
Val,Daffey,5722 Huxley Way,Tampa,Florida,33610
Melisa,Janik,9181 Mesta Alley,Bryan,Texas,77806
Barny,Teesdale,03 Miller Circle,Levittown,Pennsylvania,19058
Erie,Plaistowe,2260 Anniversary Hill,Miami,Florida,33283
Edsel,Lushey,5 Linden Hill,Syracuse,New York,13251
Emmery,Tranter,48 Hudson Terrace,Columbus,Georgia,31914
Gabie,Rawling,827 Mandrake Lane,Dayton,Ohio,45454
Kermit,Iacobacci,52758 Sunnyside Terrace,Nashville,Tennessee,37228
Claire,Chamberlin,991 Columbus Park,Lubbock,Texas,79452
Demetrius,Agius,0833 Jay Alley,Santa Barbara,California,93111
Vivianna,Breadon,78337 Scott Terrace,Buffalo,New York,14269
Marijn,O'Shee,24322 Mosinee Junction,Bakersfield,California,93386
Katinka,Stanner,542 Butterfield Trail,Knoxville,Tennessee,37919
Essa,Bywater,80998 Eliot Terrace,Virginia Beach,Virginia,23471
Fair,Borthe,3107 Texas Hill,Akron,Ohio,44393
Shantee,Frostdicke,2 Sauthoff Junction,New Hyde Park,New York,11044
Averil,Vizard,2 Straubel Lane,Modesto,California,95397
Valina,Farries,7791 Old Shore Park,Inglewood,California,90305
Alphard,Iddiens,9 Vahlen Junction,Huntington,West Virginia,25711
Ruthanne,Suggett,7 Randy Pass,San Francisco,California,94154
Kay,Dhenin,83755 Ludington Lane,New Hyde Park,New York,11044
Blane,Oats,640 Kropf Street,Norfolk,Virginia,23509
Fionnula,Stuckey,439 Melody Place,Trenton,New Jersey,08603
Kimbell,Comiskey,760 Garrison Court,Hollywood,Florida,33028
Marjorie,Radnedge,15 Gulseth Road,Columbus,Ohio,43226
Codie,Ramet,604 Bonner Point,Miami,Florida,33196
Dixie,Whales,790 Hermina Circle,Washington,District of Columbia,20557
Britte,Kilfoyle,7025 North Drive,Springfield,Illinois,62794
Lyle,Gamell,2210 Meadow Vale Park,Tulsa,Oklahoma,74116
Mona,Brazelton,79 Corben Junction,Cleveland,Ohio,44197
Henri,Brann,238 Lien Road,Huntington,West Virginia,25726
Henrietta,Loody,2 Menomonie Way,Long Beach,California,90805
Marijo,Riddeough,91237 Bluestem Plaza,San Jose,California,95173
Staffard,McMickan,94 Algoma Trail,Fort Wayne,Indiana,46805
Kain,Butson,25651 Schiller Terrace,Roanoke,Virginia,24048
Claudell,Brafield,12136 Esch Court,Peoria,Illinois,61640
Elly,Day,774 Westport Terrace,Hialeah,Florida,33018
Leanor,Gerrett,4 Talmadge Place,Shreveport,Louisiana,71161
Ronny,Garfitt,73484 Delladonna Crossing,Las Vegas,Nevada,89150
Josefina,Woodeson,160 Kings Plaza,Denver,Colorado,80217
Lucian,Oliveti,2345 Onsgard Drive,Washington,District of Columbia,20575
Mavis,D'Ambrogio,41 Buena Vista Hill,Staten Island,New York,10310
Bailie,Corten,60 Roth Park,Paterson,New Jersey,07544
Ranique,Dunk,4138 Oak Center,Duluth,Georgia,30195
Georgetta,Gourlay,6 Sunbrook Place,San Diego,California,92121
Layne,Wellum,51136 Kennedy Center,Kalamazoo,Michigan,49006
Gabby,Lamping,405 Little Fleur Parkway,Buffalo,New York,14269
Selena,Stickney,0 Butterfield Center,Lexington,Kentucky,40510
Bobby,Diess,30458 Schurz Way,Washington,District of Columbia,20430
Michel,Chessill,96 Fair Oaks Circle,Billings,Montana,59105
Ibby,Yarnall,13 American Junction,Columbia,Missouri,65211
Dorey,Mearns,6090 Veith Alley,Lafayette,Louisiana,70505
Noami,Chue,2471 Mesta Alley,Saint Petersburg,Florida,33705
Eada,Bulgen,98505 Little Fleur Pass,New York City,New York,10024
Carson,Weber,495 Cascade Point,Saint Joseph,Missouri,64504
Chas,Yushmanov,56800 Killdeer Street,Decatur,Georgia,30033
Berrie,Handrahan,2 Dapin Street,Tallahassee,Florida,32399
Kaitlyn,Prout,5600 Pond Park,Houston,Texas,77250
Shannah,Sherbrook,563 Morningstar Park,Boise,Idaho,83757
Alfonso,Arkow,8 Mariners Cove Alley,Fresno,California,93726
Cordelie,Phizaclea,38 Hanover Hill,Akron,Ohio,44310
Xymenes,Meader,8074 Hauk Street,Austin,Texas,78703
Weylin,MacKinnon,7 Hoepker Junction,Baltimore,Maryland,21290
Hettie,Gulley,21 Jenna Hill,Houston,Texas,77266
Arlee,Woffinden,4510 Charing Cross Drive,San Bernardino,California,92405
Almire,Gobolos,437 Ramsey Plaza,Little Rock,Arkansas,72222
Simone,Storek,5735 Magdeline Alley,Iowa City,Iowa,52245
Mirabella,Petrussi,75 North Lane,Lexington,Kentucky,40596
Kathye,Sidlow,4 Mallory Way,Manassas,Virginia,22111
Jeffy,Taree,12 Linden Point,Fort Worth,Texas,76110
Minetta,Bambury,388 Springs Way,Schenectady,New York,12305
Maddalena,Boutton,98 Myrtle Trail,Saint Louis,Missouri,63143
Sybyl,Lyte,5206 Walton Street,Philadelphia,Pennsylvania,19172
Bord,Befroy,74785 Mcguire Junction,Columbia,South Carolina,29220
Brana,Gable,51654 Barby Plaza,Houston,Texas,77206
Corene,Rubinowitsch,09 Paget Alley,Littleton,Colorado,80126
Malinda,Dallaway,08 Esker Court,Kansas City,Missouri,64199
Link,Noddles,735 Graedel Drive,Indianapolis,Indiana,46247
Loydie,Pembery,08 Independence Junction,Columbus,Ohio,43210
Valera,Gogerty,8016 Prairieview Crossing,Modesto,California,95354
Cherida,Curner,1 Blaine Point,Indianapolis,Indiana,46254
Jill,Fattorini,6 Ohio Alley,Visalia,California,93291
Bogey,Fawdrie,76873 American Parkway,Muncie,Indiana,47306
Anett,Gave,85 Birchwood Way,Jacksonville,Florida,32259
Marven,Cossom,586 Northview Plaza,El Paso,Texas,88574
Agustin,Crottagh,88738 2nd Road,Washington,District of Columbia,20503
Octavius,Manhare,622 Farwell Hill,Santa Barbara,California,93150
Beatrisa,Donner,59794 Marcy Point,Lynchburg,Virginia,24503
Rudie,Skouling,388 Kinsman Park,Cleveland,Ohio,44191
Nils,Hadlee,2694 Moulton Lane,Palm Bay,Florida,32909
Vladimir,Vanyashin,0 Reindahl Trail,Hicksville,New York,11854
Veronica,Jesper,5765 Glacier Hill Place,Mesa,Arizona,85210
Jonah,Wolverson,6296 Butternut Drive,Dallas,Texas,75226
Malvin,Potten,734 Charing Cross Crossing,Chicago,Illinois,60614
Becky,Touson,124 Kedzie Road,Florence,South Carolina,29505
Marya,Rembrandt,995 2nd Terrace,Philadelphia,Pennsylvania,19093
Iseabal,Spurden,276 Cambridge Lane,Oceanside,California,92056
Tedie,Broomfield,0 Donald Place,Indianapolis,Indiana,46226
Marcile,Igounet,71 Caliangt Pass,Louisville,Kentucky,40250
Kellsie,Hurdidge,63601 Redwing Road,Des Moines,Iowa,50936
Lind,Kempe,65664 Kipling Terrace,Tulsa,Oklahoma,74116
Peder,Theunissen,0 Scott Terrace,Charlotte,North Carolina,28215
Alicea,Channing,7352 Declaration Court,Memphis,Tennessee,38131
Amerigo,Dyson,05247 Kedzie Place,Albuquerque,New Mexico,87180
D'arcy,Sneesby,2283 South Crossing,Las Vegas,Nevada,89130
Caryl,Traviss,47 John Wall Crossing,Denver,Colorado,80217
Jerrine,Elms,098 Schurz Parkway,San Antonio,Texas,78265
Matthus,Lewin,3 Monterey Center,Lexington,Kentucky,40505
Jenn,Laimable,356 Eastlawn Lane,Charlotte,North Carolina,28256
Fair,McLucas,794 Warrior Point,Stockton,California,95205
Flss,Cornew,04240 Loeprich Parkway,New Haven,Connecticut,06538
Webster,Barrington,40640 Stuart Court,Baltimore,Maryland,21281
Eliot,Capin,503 Fremont Center,Salt Lake City,Utah,84130
Ashlen,Mc Trusty,3 Meadow Vale Place,Arvada,Colorado,80005
Skipper,Leuty,23944 Gerald Road,Tampa,Florida,33633
Sharl,Rojel,5 Coolidge Lane,Saint Paul,Minnesota,55123
Morgun,Grinyakin,58 Donald Court,Boca Raton,Florida,33432
Sebastian,Pescud,27783 Blaine Center,Davenport,Iowa,52809
Arleta,Graysmark,47064 Prentice Alley,Oklahoma City,Oklahoma,73152
Jade,Jauncey,89 Almo Trail,Evansville,Indiana,47705
Consalve,Slyme,3587 Dovetail Trail,Savannah,Georgia,31405
Mommy,Minkin,106 Cascade Park,Spokane,Washington,99205
Quentin,Dennett,2 Claremont Park,Santa Rosa,California,95405
Barnabe,Jewsbury,3005 Kings Alley,Houston,Texas,77010
Laurena,Enriquez,4300 Lake View Drive,Boulder,Colorado,80328
Graig,Fairebrother,21 Buhler Crossing,Newark,New Jersey,07112
Cristionna,Das,595 Ramsey Drive,Honolulu,Hawaii,96825
Hildagarde,Brandone,3 Beilfuss Parkway,Lexington,Kentucky,40586
Merry,Eyckel,4890 Dapin Center,Ashburn,Virginia,22093
Evelina,Taffie,14887 Mcbride Terrace,Birmingham,Alabama,35290
Alexander,Packe,51724 High Crossing Crossing,Sacramento,California,95823
Rheba,Conre,1158 Ohio Road,Escondido,California,92030
Jobina,Treagus,15601 Pond Alley,Reston,Virginia,20195
Corny,Semaine,94 Hovde Crossing,Austin,Texas,78744
Rici,Sterricks,62 Golden Leaf Drive,Springfield,Illinois,62794
Dion,Brilon,8145 Gale Park,Lakewood,Washington,98498
Cart,Kynsey,418 Moulton Avenue,Roanoke,Virginia,24040
Isaak,Buss,3 Lindbergh Center,Arlington,Texas,76011
Emma,Gather,8343 Gerald Park,Saint Augustine,Florida,32092
Magdalen,Mouat,04289 Clove Road,Jersey City,New Jersey,07305
Lorna,Ivermee,27201 Warner Junction,Warren,Michigan,48092
Camila,Sleath,8 Summit Road,Pompano Beach,Florida,33064
Darbie,Woosnam,55199 Comanche Terrace,North Little Rock,Arkansas,72199
Cyndie,MacCroary,892 Bellgrove Pass,Saint Louis,Missouri,63110
Bibby,Broske,9 Green Place,Peoria,Illinois,61656
Annelise,Hassell,1 Beilfuss Court,Kansas City,Missouri,64136
Katina,Shoebrook,1877 Reinke Pass,Denver,Colorado,80270
Danice,O'Loughnan,176 Vidon Park,Indianapolis,Indiana,46226
Lurline,Davisson,23 Raven Court,Lancaster,Pennsylvania,17605
Kippie,Ginty,8 Esker Street,Jamaica,New York,11480
Korie,Gaskin,88638 Aberg Hill,Edmond,Oklahoma,73034
Paton,Heaselgrave,3935 Redwing Plaza,Atlanta,Georgia,30306
Rena,Tanguy,8 Homewood Street,Evansville,Indiana,47705
Cordy,Shewon,0330 Graedel Court,Beaverton,Oregon,97075
Crystal,Tolotti,09287 Del Mar Point,Asheville,North Carolina,28805
Aida,Brunskill,9758 Schiller Drive,Florence,South Carolina,29505
Mariam,Icom,0041 Marquette Avenue,Philadelphia,Pennsylvania,19131
Alwin,Shovell,60 Shopko Terrace,Louisville,Kentucky,40210
Beverley,MacGuigan,9 Laurel Park,Largo,Florida,34643
Merwyn,Sutlieff,482 Bowman Circle,Dallas,Texas,75226
Allissa,Otley,996 Kenwood Place,West Hartford,Connecticut,06127
Miriam,Thominga,3 Briar Crest Pass,Pittsburgh,Pennsylvania,15266
Ilise,Whopples,3 Dixon Terrace,Denver,Colorado,80279
Courtenay,L'Hommeau,18168 Aberg Place,Clearwater,Florida,34629
Leola,Vize,982 Judy Plaza,Saint Petersburg,Florida,33710
Mona,Yewman,8288 Dryden Alley,Austin,Texas,78710
Kelbee,Heustice,0148 Pine View Parkway,Memphis,Tennessee,38181
Laraine,Abbison,35246 Hudson Pass,Roanoke,Virginia,24034
Robbie,Branno,8442 Bartelt Junction,Atlanta,Georgia,30340
Jeana,Urpeth,1 Prairieview Street,Santa Ana,California,92705
Quinlan,Wye,80 Clarendon Way,Oklahoma City,Oklahoma,73197
Ignacio,Woltman,99560 Bobwhite Trail,Humble,Texas,77346
Lorant,Paulo,658 Melvin Junction,Louisville,Kentucky,40205
Bev,Stanyforth,73602 Nancy Crossing,Irvine,California,92717
Maurita,Marcinkus,27245 Kenwood Park,Gulfport,Mississippi,39505
Diane,Gutans,43668 Becker Place,Nashville,Tennessee,37220
Madelene,Josef,67 Corry Pass,Washington,District of Columbia,20319
Christophorus,Pollastrone,29589 Kingsford Trail,Indianapolis,Indiana,46231
Natal,Absolon,2 Coleman Terrace,El Paso,Texas,79989
Theda,Madders,040 Stuart Place,West Palm Beach,Florida,33421
Dimitry,Phillins,07882 Dayton Place,Carol Stream,Illinois,60351
Alphard,Loidl,9 Cordelia Plaza,North Port,Florida,34290
Brok,Fursland,6 Mesta Circle,Pittsburgh,Pennsylvania,15235
Leonhard,Gilgryst,8245 Green Pass,Fort Worth,Texas,76110
Evelina,Mulder,5 Scott Street,Montgomery,Alabama,36114
Krystyna,Coners,6413 Washington Terrace,Saint Cloud,Minnesota,56398
Westbrooke,Gemmill,12 Loeprich Court,El Paso,Texas,88530
Truda,Chesterfield,6 Karstens Place,Mount Vernon,New York,10557
Bernete,Pinnegar,52 Valley Edge Circle,Youngstown,Ohio,44555
Arlana,Staggs,2 New Castle Center,Sacramento,California,95894
Lisle,Coleborn,1 Division Way,Alpharetta,Georgia,30022
Irwin,Kaliszewski,324 Gateway Point,Portland,Maine,04109
Job,Shimony,753 Stoughton Lane,Littleton,Colorado,80126
Alissa,Flude,80 Eastwood Point,Naples,Florida,33961
Paolo,Norcliffe,0 Blaine Way,Alpharetta,Georgia,30022
Glen,Hixley,2 Pennsylvania Plaza,Pinellas Park,Florida,34665
Gallagher,Jenkison,0 Rockefeller Junction,Los Angeles,California,90025
Bethanne,Tewkesberry,0453 Claremont Drive,Saint Paul,Minnesota,55103
Alanson,Caney,8832 Farwell Lane,Washington,District of Columbia,20456
Marten,Hansley,1846 Gateway Drive,San Rafael,California,94913
Gunilla,Schachter,1814 Eastlawn Point,New York City,New York,10275
Sydney,Joderli,01606 Annamark Crossing,Miami,Florida,33245
Melody,Dignan,871 Artisan Court,Omaha,Nebraska,68197
Matthiew,Glasscott,4141 Vera Park,Saint Louis,Missouri,63158
Ester,Barta,629 Melby Terrace,San Diego,California,92170
Clayton,Hamlett,451 Fuller Trail,Lawrenceville,Georgia,30245
Lynea,Greystock,7063 Birchwood Lane,Louisville,Kentucky,40287
Jard,Dollard,4 Sutteridge Pass,Fort Worth,Texas,76121
Kori,Thowes,8 Reindahl Place,Shawnee Mission,Kansas,66210
Tucker,McBeth,6 Fieldstone Parkway,Newport News,Virginia,23605
Hayley,Heninghem,600 Lakewood Point,Houston,Texas,77015
Torry,Woodes,79529 Pawling Plaza,Elmira,New York,14905
Lemar,Bardey,7337 Vahlen Court,Raleigh,North Carolina,27626
Kristine,Gannaway,14 Gateway Court,Topeka,Kansas,66606
Basilio,Boullin,56 Susan Junction,Colorado Springs,Colorado,80951
Edmon,Collymore,5 Manufacturers Court,Dayton,Ohio,45426
Dorey,Mackieson,15421 Prairie Rose Terrace,Wichita,Kansas,67205
Lacie,Kikke,927 Sunbrook Junction,Fort Lauderdale,Florida,33345
Ramona,Lawrie,492 Mesta Pass,Mobile,Alabama,36641
Rochelle,Dyzart,65 Park Meadow Center,Memphis,Tennessee,38119
Bobbette,Gowar,231 Lindbergh Alley,Amarillo,Texas,79105
Jeramie,Bixley,8 Jackson Way,Richmond,Virginia,23277
Gerty,Malyan,5479 Mayfield Pass,Hampton,Virginia,23663
Marlane,Rubinov,1639 Sachtjen Center,Columbia,South Carolina,29203
Orbadiah,Scarasbrick,3607 Portage Pass,Sacramento,California,94273
Lolly,Thoumas,607 Vernon Terrace,Wilmington,Delaware,19805
Ronica,Merry,5 Eastlawn Alley,Birmingham,Alabama,35254
Kipp,Tuley,2048 Porter Road,Corpus Christi,Texas,78465
Sidnee,Willimot,7 Quincy Pass,Knoxville,Tennessee,37931
Euphemia,Stronough,3 Lyons Trail,Fort Worth,Texas,76115
Elsey,Leishman,46 Oakridge Point,Milwaukee,Wisconsin,53215
Ellyn,Stearns,5618 Rowland Alley,Amarillo,Texas,79176
Emelda,Vaugham,175 Oriole Circle,Des Moines,Iowa,50305
Emili,Gravenall,981 Buena Vista Court,Carson City,Nevada,89714
Sammie,Heephy,9645 Holy Cross Court,Vienna,Virginia,22184
Lorry,Cradock,4792 Walton Parkway,Tampa,Florida,33647
Arne,Settle,28 Vahlen Plaza,Durham,North Carolina,27705
Jamison,Bertl,20 Clemons Court,Washington,District of Columbia,20210
Roxy,Letford,826 Sunfield Center,Philadelphia,Pennsylvania,19125
Meghann,Upward,73246 Fairfield Crossing,Columbia,South Carolina,29240
Kelcey,Melpuss,8 Becker Point,Huntsville,Alabama,35895
Ardelle,Brayfield,95198 Burrows Place,Minneapolis,Minnesota,55470
Valentina,LAbbet,3185 Kings Plaza,Richmond,Virginia,23285
Rosene,Sustin,11685 Loeprich Point,Detroit,Michigan,48275
Putnam,McGorman,71 Eagle Crest Junction,Fort Worth,Texas,76178
Yelena,Kiehl,3 Carberry Hill,Alexandria,Virginia,22309
Caralie,Giffard,622 Hanover Drive,Shreveport,Louisiana,71137
Beaufort,Skupinski,93 Waxwing Street,Pittsburgh,Pennsylvania,15240
Clint,Adelsberg,5317 Eagan Way,Little Rock,Arkansas,72215
Valle,Brady,8666 Brown Junction,Santa Cruz,California,95064
Meyer,Galer,60536 Moulton Drive,Providence,Rhode Island,02912
Erskine,Basley,6749 Paget Point,Virginia Beach,Virginia,23464
Odelia,Theakston,64 Coolidge Pass,Las Cruces,New Mexico,88006
Carmelina,Keher,7 Havey Parkway,Miami,Florida,33134
Obie,Castanie,3 Sunbrook Circle,Tacoma,Washington,98405
Pearla,Tookey,657 Esker Center,Boca Raton,Florida,33487
Halie,Plesing,19662 Dahle Street,Birmingham,Alabama,35236
Hale,Beefon,4990 Bay Circle,Tyler,Texas,75705
Carlyle,Sogg,9 Northport Avenue,Ogden,Utah,84403
Jaime,Toop,329 Redwing Drive,Birmingham,Alabama,35210
Shalom,Astles,00745 Fair Oaks Plaza,Lexington,Kentucky,40515
Johnathan,Andriss,4032 Warbler Place,Fort Wayne,Indiana,46862
Felipa,Cawse,62 Bobwhite Road,Bakersfield,California,93399
Fairfax,Penrith,5372 Paget Lane,Pueblo,Colorado,81005
Roman,Silverson,15 Golf Course Center,San Jose,California,95118
Hurlee,Iacovazzi,4691 Thompson Crossing,Arlington,Texas,76011
Hughie,Barracks,32 Messerschmidt Point,Fort Pierce,Florida,34981
Lanna,Andryunin,7537 Welch Lane,Los Angeles,California,90025
Brennen,Goddard,5663 Merchant Terrace,Bloomington,Illinois,61709
Ivan,Rohan,6 Shelley Plaza,Minneapolis,Minnesota,55428
Dougie,Burnel,3 Katie Junction,New York City,New York,10034
Zerk,Karim,7808 Manley Road,Irvine,California,92717
Becka,Joyce,7 Arkansas Plaza,Anchorage,Alaska,99517
Janella,Kime,9 Michigan Junction,Denver,Colorado,80262
Elden,Chasen,6 Eagan Junction,New York City,New York,10160
Emmalynne,Pizey,47761 Prairie Rose Lane,Fort Worth,Texas,76110
